STARLINK-30089          
1 56296U 23056L   24176.41562588  .00002435  00000+0  19521-3 0  9997
2 56296  43.0043 318.0926 0001211 272.2773  87.7931 15.02550291 66117
STARLINK-30086          
1 56297U 23056M   24175.86972702  .00001185  00000+0  10280-3 0  9993
2 56297  43.0039   0.0006 0001218 256.3810 103.6897 15.02531626 66189
STARLINK-30109          
1 56298U 23056N   24175.87638504  .00001401  00000+0  11877-3 0  9998
2 56298  43.0045   0.0526 0001269 274.0868  85.9829 15.02539851 66242
STARLINK-30108          
1 56299U 23056P   24176.50824287  .00001272  00000+0  10922-3 0  9991
2 56299  43.0053 344.0603 0001511 269.3535  90.7134 15.02540635 66488
STARLINK-30104          
1 56300U 23056Q   24176.49455718  .00000418  00000+0  45988-4 0  9993
2 56300  43.0034 356.1728 0001131 257.3541 102.7175 15.02541814 66348
STARLINK-30101          
1 56301U 23056R   24176.52452855  .00000729  00000+0  69048-4 0  9995
2 56301  43.0035 356.3789 0001294 272.4559  87.6136 15.02535130 66348
STARLINK-30111          
1 56302U 23056S   24176.51787772  .00012339  00000+0  92893-3 0  9997
2 56302  43.0035 356.2694 0000919 323.2033  36.8746 15.02451430 66341
STARLINK-30097          
1 56303U 23056T   24176.58335648  .00159103  00000+0  77150-3 0  9996
2 56303  42.9887 272.9688 0031956  14.7943 243.0302 15.80474154  5481
STARLINK-30099          
1 56304U 23056U   24176.51452400  .00000355  00000+0  41375-4 0  9991
2 56304  43.0053 356.2303 0001380 262.7377  97.3309 15.02536209 66346
STARLINK-30094          
1 56305U 23056V   24176.51119132  .00000785  00000+0  73150-4 0  9997
2 56305  43.0043 356.1915 0001181 264.4720  95.5987 15.02535346 66347
STARLINK-30112          
1 56306U 23056W   24175.65697213  .00000706  00000+0  67285-4 0  9998
2 56306  43.0019   0.9843 0000720 261.6245  98.4516 15.02539578 66211
STARLINK-6038           
1 56317U 23058A   24176.54405734  .00000964  00000+0  79619-4 0  9996
2 56317  97.6556 177.2140 0002330  84.7177 275.4313 15.01258833 64287
STARLINK-5954           
1 56318U 23058B   24176.54035515  .00000115  00000+0  13592-4 0  9999
2 56318  97.6541 177.2170 0003583  83.4347 276.7285 15.01262851 64288
STARLINK-6039           
1 56319U 23058C   24176.53850494  .00000740  00000+0  62225-4 0  9991
2 56319  97.6545 177.2178 0003593  91.1071 269.0565 15.01257906 64283
STARLINK-5988           
1 56320U 23058D   24176.54430256  .00000246  00000+0  23720-4 0  9992
2 56320  97.6552 177.2123 0002528  88.0657 272.0857 15.01259843 64296
STARLINK-5876           
1 56321U 23058E   24176.59959093 -.00077902  00000+0 -61309-2 0  9991
2 56321  97.6520 177.2835 0002175 139.6051 220.5335 15.01238422 64290
STARLINK-6033           
1 56322U 23058F   24176.47555240  .00000838  00000+0  69800-4 0  9993
2 56322  97.6555 177.1507 0003192  87.3570 272.8020 15.01260471 64277
STARLINK-6035           
1 56323U 23058G   24176.60145274  .00000559  00000+0  48089-4 0  9997
2 56323  97.6534 177.2825 0004406  88.8942 271.2787 15.01261442 64280
STARLINK-6034           
1 56324U 23058H   24176.53665389 -.00000028  00000+0  24174-5 0  9996
2 56324  97.6531 177.2174 0004150  90.3085 269.8614 15.01258908 64282
STARLINK-5981           
1 56325U 23058J   24176.59404549 -.00000578  00000+0 -40398-4 0  9998
2 56325  97.6534 177.2883 0003943  81.2670 278.9001 15.01250554 64641
STARLINK-5980           
1 56326U 23058K   24176.53689726  .00000337  00000+0  30875-4 0  9995
2 56326  97.6534 177.2177 0003886  88.5426 271.6243 15.01258343 64285
STARLINK-5997           
1 56327U 23058L   24176.58873091  .00000178  00000+0  18416-4 0  9991
2 56327  97.6544 177.2936 0001702  89.1021 271.0398 15.01262505 64643
STARLINK-5992           
1 56328U 23058M   24176.59589541  .00000224  00000+0  22010-4 0  9994
2 56328  97.6541 177.2856 0002636  94.3511 265.8014 15.01259701 64641
STARLINK-5984           
1 56329U 23058N   24176.59219358  .00000106  00000+0  12866-4 0  9998
2 56329  97.6545 177.2897 0003324  87.5883 272.5722 15.01257872 64640
STARLINK-5967           
1 56330U 23058P   24176.52948609  .00000127  00000+0  14519-4 0  9991
2 56330  97.6532 177.2235 0002428  69.8334 290.3151 15.01258193 64148
STARLINK-5991           
1 56331U 23058Q   24176.58663448  .00000529  00000+0  45754-4 0  9994
2 56331  97.6543 177.2966 0001406  94.3317 265.8068 15.01259363 64640
STARLINK-5093           
1 56332U 23058R   24176.59775283  .00000343  00000+0  31306-4 0  9999
2 56332  97.6537 177.2846 0005733  71.4418 288.7429 15.01258096 64643
STARLINK-5553           
1 56333U 23058S   24176.58478044 -.00000659  00000+0 -46758-4 0  9993
2 56333  97.6542 177.2986 0000961  97.9995 262.1338 15.01259556 64643
STARLINK-5548           
1 56334U 23058T   24176.58849394 -.00000679  00000+0 -48282-4 0  9990
2 56334  97.6550 177.2930 0002322 112.9536 247.1933 15.01248493 64646
STARLINK-5559           
1 56335U 23058U   24176.57946899 -.00000431  00000+0 -28970-4 0  9996
2 56335  97.6542 177.3054 0001152 177.4096 182.7134 15.01257439 64640
STARLINK-5562           
1 56336U 23058V   24176.59034593  .00002544  00000+0  20259-3 0  9994
2 56336  97.6541 177.2927 0002063  98.1890 261.9569 15.01257998 64643
STARLINK-5561           
1 56337U 23058W   24176.58131997 -.00000392  00000+0 -25902-4 0  9992
2 56337  97.6541 177.3035 0000936 159.1408 200.9854 15.01257772 64645
STARLINK-5554           
1 56338U 23058X   24176.58292815 -.00000209  00000+0 -11692-4 0  9998
2 56338  97.6543 177.3012 0000715 123.4767 236.6525 15.01256948 64645
STARLINK-5552           
1 56339U 23058Y   24176.57548367  .00003086  00000+0  24453-3 0  9996
2 56339  97.6546 177.3106 0001576 191.3464 168.7725 15.01288667 64647
STARLINK-5540           
1 56340U 23058Z   24176.58107553 -.00000424  00000+0 -28454-4 0  9998
2 56340  97.6542 177.3032 0000734 166.0918 194.0326 15.01259366 64644
STARLINK-5543           
1 56341U 23058AA  24176.57922265 -.00000295  00000+0 -18349-4 0  9991
2 56341  97.6542 177.3061 0001105 190.3723 169.7478 15.01257740 64645
STARLINK-5955           
1 56342U 23058AB  24176.57737150 -.00000537  00000+0 -37207-4 0  9992
2 56342  97.6545 177.3081 0001621 182.6842 177.4374 15.01257827 64647
STARLINK-5976           
1 56343U 23058AC  24176.56996314 -.00000230  00000+0 -13335-4 0  9997
2 56343  97.6549 177.3173 0001615 184.0430 176.0781 15.01259873 64646
STARLINK-5974           
1 56344U 23058AD  24176.57366659  .00000108  00000+0  12992-4 0  9992
2 56344  97.6546 177.3127 0002046 192.3715 167.7459 15.01257905 64643
STARLINK-5979           
1 56345U 23058AE  24176.56811268  .00000106  00000+0  12849-4 0  9992
2 56345  97.6552 177.3203 0002700 175.0029 185.1223 15.01258796 64641
STARLINK-5837           
1 56346U 23058AF  24176.57181539 -.00000061  00000+0 -16551-6 0  9993
2 56346  97.6548 177.3151 0002127 185.2323 174.8879 15.01258075 64644
STARLINK-5829           
1 56347U 23058AG  24176.56626045  .00000162  00000+0  17177-4 0  9992
2 56347  97.6555 177.3237 0001443 175.9030 184.2207 15.01259240 64644
STARLINK-5888           
1 56348U 23058AH  24176.57390873  .00000700  00000+0  59062-4 0  9998
2 56348  97.6544 177.3122 0002068 194.2167 165.8999 15.01261974 64645
STARLINK-5887           
1 56349U 23058AJ  24176.56070574  .00000185  00000+0  19021-4 0  9999
2 56349  97.6582 177.3351 0000831 143.0945 217.0336 15.01259486 64644
STARLINK-5886           
1 56350U 23058AK  24176.56256127  .00000329  00000+0  30193-4 0  9994
2 56350  97.6563 177.3306 0001011 150.8289 209.2992 15.01258921 64647
STARLINK-5891           
1 56351U 23058AL  24176.55885555  .00000291  00000+0  27250-4 0  9995
2 56351  97.6591 177.3403 0001013  91.1462 268.9878 15.01258425 64643
STARLINK-5885           
1 56352U 23058AM  24176.56440836 -.00000052  00000+0  56674-6 0  9996
2 56352  97.6560 177.3264 0001525 176.7660 183.3574 15.01259741 64648
STARLINK-5874           
1 56353U 23058AN  24176.54589821 -.00001520  00000+0 -11372-3 0  9998
2 56353  97.6550 177.3672 0002779  98.5812 261.5727 15.01268649 64649
STARLINK-5877           
1 56354U 23058AP  24176.56650524  .00000204  00000+0  20471-4 0  9997
2 56354  97.6554 177.3232 0001727 175.1383 184.9858 15.01258915 64641
STARLINK-5533           
1 56355U 23058AQ  24176.55329960  .00001083  00000+0  88926-4 0  9999
2 56355  97.6571 177.3525 0001719  87.3835 272.7585 15.01259111 64151
STARLINK-5535           
1 56356U 23058AR  24176.55515115  .00000888  00000+0  73758-4 0  9998
2 56356  97.6573 177.3486 0001620  80.3024 279.8383 15.01259375 64150
STARLINK-5538           
1 56357U 23058AS  24176.55354475  .00000708  00000+0  59691-4 0  9990
2 56357  97.6568 177.3526 0001927 100.8495 259.2946 15.01258946 64150
STARLINK-5482           
1 56358U 23058AT  24176.55700595  .00000695  00000+0  58678-4 0  9998
2 56358  97.6578 177.3450 0001945  88.9203 271.2244 15.01261637 64641
STARLINK-5551           
1 56359U 23058AU  24176.55169418  .00000840  00000+0  69953-4 0  9992
2 56359  97.6566 177.3589 0001928  82.5119 277.6324 15.01257585 64151
STARLINK-5549           
1 56360U 23058AV  24176.55144846  .00002040  00000+0  16343-3 0  9990
2 56360  97.6563 177.3577 0001772  85.0799 275.0628 15.01252537 64157
STARLINK-5550           
1 56361U 23058AW  24176.54959883  .00000418  00000+0  37127-4 0  9996
2 56361  97.6558 177.3620 0002113  90.2190 269.9276 15.01257425 64640
STARLINK-5972           
1 56362U 23058AX  24176.54774602  .00000129  00000+0  14658-4 0  9994
2 56362  97.6557 177.3634 0002532 101.1279 259.0230 15.01260345 64151
STARLINK-6156           
1 56374U 23061A   24176.46945902  .00012325  00000+0  92680-3 0  9996
2 56374  43.0068 344.0933 0001876 264.6988  95.3640 15.02497284 64109
STARLINK-6158           
1 56375U 23061B   24176.46389301  .00001079  00000+0  94966-4 0  9996
2 56375  43.0039 344.0492 0001212 268.3145  91.7559 15.02537410 63001
